CCSDS_OMM_VERS = 2.0
CREATION_DATE  = 
ORIGINATOR     = 

OBJECT_NAME    = STARLINK-36840
OBJECT_ID      = 2026-034A
CENTER_NAME    = EARTH
REF_FRAME      = TEME
TIME_SYSTEM    = UTC
MEAN_ELEMENT_THEORY = SGP/SGP4

EPOCH          = 2026-03-04T20:00:03.000384
MEAN_MOTION    = 15.80818560
ECCENTRICITY   = .0001244
INCLINATION    = 53.1590
RA_OF_ASC_NODE = 235.6971
ARG_OF_PERICENTER = 77.7661
MEAN_ANOMALY   = 109.4666

EPHEMERIS_TYPE = 0
CLASSIFICATION_TYPE = U
NORAD_CAT_ID   = 67850
ELEMENT_SET_NO = 999
REV_AT_EPOCH   = 313
BSTAR          = .38257E-3
MEAN_MOTION_DOT = .75278E-3
MEAN_MOTION_DDOT = 0

CCSDS_OMM_VERS = 2.0
CREATION_DATE  = 
ORIGINATOR     = 

OBJECT_NAME    = STARLINK-36348
OBJECT_ID      = 2026-034B
CENTER_NAME    = EARTH
REF_FRAME      = TEME
TIME_SYSTEM    = UTC
MEAN_ELEMENT_THEORY = SGP/SGP4

EPOCH          = 2026-03-04T20:00:03.000384
MEAN_MOTION    = 15.80810427
ECCENTRICITY   = .0001258
INCLINATION    = 53.1594
RA_OF_ASC_NODE = 235.6879
ARG_OF_PERICENTER = 64.4782
MEAN_ANOMALY   = 127.0109

EPHEMERIS_TYPE = 0
CLASSIFICATION_TYPE = U
NORAD_CAT_ID   = 67851
ELEMENT_SET_NO = 999
REV_AT_EPOCH   = 308
BSTAR          = .60398E-3
MEAN_MOTION_DOT = .119827E-2
MEAN_MOTION_DDOT = 0

CCSDS_OMM_VERS = 2.0
CREATION_DATE  = 
ORIGINATOR     = 

OBJECT_NAME    = STARLINK-36276
OBJECT_ID      = 2026-034C
CENTER_NAME    = EARTH
REF_FRAME      = TEME
TIME_SYSTEM    = UTC
MEAN_ELEMENT_THEORY = SGP/SGP4

EPOCH          = 2026-03-04T20:00:03.000384
MEAN_MOTION    = 15.80847647
ECCENTRICITY   = .0001349
INCLINATION    = 53.1593
RA_OF_ASC_NODE = 235.6790
ARG_OF_PERICENTER = 44.0637
MEAN_ANOMALY   = 151.6837

EPHEMERIS_TYPE = 0
CLASSIFICATION_TYPE = U
NORAD_CAT_ID   = 67852
ELEMENT_SET_NO = 999
REV_AT_EPOCH   = 308
BSTAR          = .26068E-3
MEAN_MOTION_DOT = .50994E-3
MEAN_MOTION_DDOT = 0

CCSDS_OMM_VERS = 2.0
CREATION_DATE  = 
ORIGINATOR     = 

OBJECT_NAME    = STARLINK-36785
OBJECT_ID      = 2026-034D
CENTER_NAME    = EARTH
REF_FRAME      = TEME
TIME_SYSTEM    = UTC
MEAN_ELEMENT_THEORY = SGP/SGP4

EPOCH          = 2026-03-04T20:00:03.000384
MEAN_MOTION    = 15.80884993
ECCENTRICITY   = .0001247
INCLINATION    = 53.1590
RA_OF_ASC_NODE = 235.6698
ARG_OF_PERICENTER = 55.0271
MEAN_ANOMALY   = 145.0408

EPHEMERIS_TYPE = 0
CLASSIFICATION_TYPE = U
NORAD_CAT_ID   = 67853
ELEMENT_SET_NO = 999
REV_AT_EPOCH   = 308
BSTAR          = -.53153E-3
MEAN_MOTION_DOT = -.104408E-2
MEAN_MOTION_DDOT = 0

CCSDS_OMM_VERS = 2.0
CREATION_DATE  = 
ORIGINATOR     = 

OBJECT_NAME    = STARLINK-36608
OBJECT_ID      = 2026-034E
CENTER_NAME    = EARTH
REF_FRAME      = TEME
TIME_SYSTEM    = UTC
MEAN_ELEMENT_THEORY = SGP/SGP4

EPOCH          = 2026-03-04T20:00:03.000384
MEAN_MOTION    = 15.80835276
ECCENTRICITY   = .000082
INCLINATION    = 53.1591
RA_OF_ASC_NODE = 235.6611
ARG_OF_PERICENTER = 116.0456
MEAN_ANOMALY   = 88.2474

EPHEMERIS_TYPE = 0
CLASSIFICATION_TYPE = U
NORAD_CAT_ID   = 67854
ELEMENT_SET_NO = 999
REV_AT_EPOCH   = 308
BSTAR          = .35054E-3
MEAN_MOTION_DOT = .68919E-3
MEAN_MOTION_DDOT = 0

CCSDS_OMM_VERS = 2.0
CREATION_DATE  = 
ORIGINATOR     = 

OBJECT_NAME    = STARLINK-36838
OBJECT_ID      = 2026-034F
CENTER_NAME    = EARTH
REF_FRAME      = TEME
TIME_SYSTEM    = UTC
MEAN_ELEMENT_THEORY = SGP/SGP4

EPOCH          = 2026-03-04T20:00:03.000384
MEAN_MOTION    = 15.80803190
ECCENTRICITY   = .0001045
INCLINATION    = 53.1593
RA_OF_ASC_NODE = 235.6524
ARG_OF_PERICENTER = 79.4544
MEAN_ANOMALY   = 129.1288

EPHEMERIS_TYPE = 0
CLASSIFICATION_TYPE = U
NORAD_CAT_ID   = 67855
ELEMENT_SET_NO = 999
REV_AT_EPOCH   = 308
BSTAR          = .64486E-3
MEAN_MOTION_DOT = .128064E-2
MEAN_MOTION_DDOT = 0

CCSDS_OMM_VERS = 2.0
CREATION_DATE  = 
ORIGINATOR     = 

OBJECT_NAME    = STARLINK-36843
OBJECT_ID      = 2026-034G
CENTER_NAME    = EARTH
REF_FRAME      = TEME
TIME_SYSTEM    = UTC
MEAN_ELEMENT_THEORY = SGP/SGP4

EPOCH          = 2026-03-04T20:00:03.000384
MEAN_MOTION    = 15.80854421
ECCENTRICITY   = .0000743
INCLINATION    = 53.1591
RA_OF_ASC_NODE = 235.6347
ARG_OF_PERICENTER = 78.2876
MEAN_ANOMALY   = 138.8153

EPHEMERIS_TYPE = 0
CLASSIFICATION_TYPE = U
NORAD_CAT_ID   = 67856
ELEMENT_SET_NO = 999
REV_AT_EPOCH   = 308
BSTAR          = .15775E-3
MEAN_MOTION_DOT = .3052E-3
MEAN_MOTION_DDOT = 0

CCSDS_OMM_VERS = 2.0
CREATION_DATE  = 
ORIGINATOR     = 

OBJECT_NAME    = STARLINK-36828
OBJECT_ID      = 2026-034H
CENTER_NAME    = EARTH
REF_FRAME      = TEME
TIME_SYSTEM    = UTC
MEAN_ELEMENT_THEORY = SGP/SGP4

EPOCH          = 2026-03-04T20:00:03.000384
MEAN_MOTION    = 15.80852790
ECCENTRICITY   = .000143
INCLINATION    = 53.1592
RA_OF_ASC_NODE = 235.6443
ARG_OF_PERICENTER = 64.0183
MEAN_ANOMALY   = 148.8167

EPHEMERIS_TYPE = 0
CLASSIFICATION_TYPE = U
NORAD_CAT_ID   = 67857
ELEMENT_SET_NO = 999
REV_AT_EPOCH   = 308
BSTAR          = .19081E-3
MEAN_MOTION_DOT = .37088E-3
MEAN_MOTION_DDOT = 0

CCSDS_OMM_VERS = 2.0
CREATION_DATE  = 
ORIGINATOR     = 

OBJECT_NAME    = STARLINK-36837
OBJECT_ID      = 2026-034J
CENTER_NAME    = EARTH
REF_FRAME      = TEME
TIME_SYSTEM    = UTC
MEAN_ELEMENT_THEORY = SGP/SGP4

EPOCH          = 2026-03-04T20:00:03.000384
MEAN_MOTION    = 15.80866659
ECCENTRICITY   = .0000826
INCLINATION    = 53.1592
RA_OF_ASC_NODE = 235.6253
ARG_OF_PERICENTER = 68.3924
MEAN_ANOMALY   = 152.9784

EPHEMERIS_TYPE = 0
CLASSIFICATION_TYPE = U
NORAD_CAT_ID   = 67858
ELEMENT_SET_NO = 999
REV_AT_EPOCH   = 308
BSTAR          = .62709E-4
MEAN_MOTION_DOT = .11691E-3
MEAN_MOTION_DDOT = 0

CCSDS_OMM_VERS = 2.0
CREATION_DATE  = 
ORIGINATOR     = 

OBJECT_NAME    = STARLINK-36393
OBJECT_ID      = 2026-034K
CENTER_NAME    = EARTH
REF_FRAME      = TEME
TIME_SYSTEM    = UTC
MEAN_ELEMENT_THEORY = SGP/SGP4

EPOCH          = 2026-03-04T20:00:03.000384
MEAN_MOTION    = 15.80825579
ECCENTRICITY   = .0001344
INCLINATION    = 53.1592
RA_OF_ASC_NODE = 235.6164
ARG_OF_PERICENTER = 100.7600
MEAN_ANOMALY   = 124.8930

EPHEMERIS_TYPE = 0
CLASSIFICATION_TYPE = U
NORAD_CAT_ID   = 67859
ELEMENT_SET_NO = 999
REV_AT_EPOCH   = 308
BSTAR          = .46262E-3
MEAN_MOTION_DOT = .91377E-3
MEAN_MOTION_DDOT = 0

CCSDS_OMM_VERS = 2.0
CREATION_DATE  = 
ORIGINATOR     = 

OBJECT_NAME    = STARLINK-35873
OBJECT_ID      = 2026-034L
CENTER_NAME    = EARTH
REF_FRAME      = TEME
TIME_SYSTEM    = UTC
MEAN_ELEMENT_THEORY = SGP/SGP4

EPOCH          = 2026-03-04T20:00:03.000384
MEAN_MOTION    = 15.80865660
ECCENTRICITY   = .0001028
INCLINATION    = 53.1593
RA_OF_ASC_NODE = 235.6075
ARG_OF_PERICENTER = 93.2717
MEAN_ANOMALY   = 136.6414

EPHEMERIS_TYPE = 0
CLASSIFICATION_TYPE = U
NORAD_CAT_ID   = 67860
ELEMENT_SET_NO = 999
REV_AT_EPOCH   = 322
BSTAR          = .44852E-4
MEAN_MOTION_DOT = .8159E-4
MEAN_MOTION_DDOT = 0

CCSDS_OMM_VERS = 2.0
CREATION_DATE  = 
ORIGINATOR     = 

OBJECT_NAME    = STARLINK-36325
OBJECT_ID      = 2026-034M
CENTER_NAME    = EARTH
REF_FRAME      = TEME
TIME_SYSTEM    = UTC
MEAN_ELEMENT_THEORY = SGP/SGP4

EPOCH          = 2026-03-04T20:00:03.000384
MEAN_MOTION    = 15.80836645
ECCENTRICITY   = .0000854
INCLINATION    = 53.1593
RA_OF_ASC_NODE = 235.5987
ARG_OF_PERICENTER = 92.8771
MEAN_ANOMALY   = 141.3183

EPHEMERIS_TYPE = 0
CLASSIFICATION_TYPE = U
NORAD_CAT_ID   = 67861
ELEMENT_SET_NO = 999
REV_AT_EPOCH   = 308
BSTAR          = .37592E-3
MEAN_MOTION_DOT = .74008E-3
MEAN_MOTION_DDOT = 0

