STARLINK-36840          
1 67850U 26034A   26063.83336806  .00075278  00000+0  38257-3 0  9991
2 67850  53.1590 235.6971 0001244  77.7661 109.4666 15.80818560  3130
STARLINK-36348          
1 67851U 26034B   26063.83336806  .00119827  00000+0  60398-3 0  9992
2 67851  53.1594 235.6879 0001258  64.4782 127.0109 15.80810427  3080
STARLINK-36276          
1 67852U 26034C   26063.83336806  .00050994  00000+0  26068-3 0  9998
2 67852  53.1593 235.6790 0001349  44.0637 151.6837 15.80847647  3081
STARLINK-36785          
1 67853U 26034D   26063.83336806 -.00104408  00000+0 -53153-3 0  9996
2 67853  53.1590 235.6698 0001247  55.0271 145.0408 15.80884993  3085
STARLINK-36608          
1 67854U 26034E   26063.83336806  .00068919  00000+0  35054-3 0  9991
2 67854  53.1591 235.6611 0000820 116.0456  88.2474 15.80835276  3082
STARLINK-36838          
1 67855U 26034F   26063.83336806  .00128064  00000+0  64486-3 0  9991
2 67855  53.1593 235.6524 0001045  79.4544 129.1288 15.80803190  3086
STARLINK-36843          
1 67856U 26034G   26063.83336806  .00030520  00000+0  15775-3 0  9998
2 67856  53.1591 235.6347 0000743  78.2876 138.8153 15.80854421  3088
STARLINK-36828          
1 67857U 26034H   26063.83336806  .00037088  00000+0  19081-3 0  9999
2 67857  53.1592 235.6443 0001430  64.0183 148.8167 15.80852790  3088
STARLINK-36837          
1 67858U 26034J   26063.83336806  .00011691  00000+0  62709-4 0  9998
2 67858  53.1592 235.6253 0000826  68.3924 152.9784 15.80866659  3086
STARLINK-36393          
1 67859U 26034K   26063.83336806  .00091377  00000+0  46262-3 0  9993
2 67859  53.1592 235.6164 0001344 100.7600 124.8930 15.80825579  3083
STARLINK-35873          
1 67860U 26034L   26063.83336806  .00008159  00000+0  44852-4 0  9995
2 67860  53.1593 235.6075 0001028  93.2717 136.6414 15.80865660  3220
STARLINK-36325          
1 67861U 26034M   26063.83336806  .00074008  00000+0  37592-3 0  9994
2 67861  53.1593 235.5987 0000854  92.8771 141.3183 15.80836645  3084
